TEVEL2-8                
1 63239U 25052AF  26068.66815442  .00019130  00000+0  69304-3 0  9993
2 63239  97.4055 324.2923 0008031 124.9191 235.2804 15.28392908 54807
STARLINK-36523          
1 67460U 26008R   26068.39430650  .00025813  00000+0  94342-3 0  9994
2 67460  43.0011 207.1838 0002454 274.7498  85.3073 15.27607881  9526
